{"type": "FeatureCollection", "features": [ {"type": "Feature", "properties": {"norad_id": 33153, "name": "INTELSAT 25 (IS-25)", "group": "intelsat", "lat": -2.091416931606978, "lon": -27.453107438224652, "alt_km": 35777.20705448872, "timestamp": "2025-12-10T18:56:59.729597+00:00", "meta": {"OBJECT_NAME": "INTELSAT 25 (IS-25)", "OBJECT_ID": "2008-034A", "EPOCH": "2025-12-09T20:16:17.405760", "MEAN_MOTION": 1.00270259, "ECCENTRICITY": 0.00053791, "INCLINATION": 2.2204, "RA_OF_ASC_NODE": 82.6784, "ARG_OF_PERICENTER": 184.9843, "MEAN_ANOMALY": 83.7399, "EPHEMERIS_TYPE": 0, "CLASSIFICATION_TYPE": "U", "NORAD_CAT_ID": 33153, "ELEMENT_SET_NO": 999, "REV_AT_EPOCH": 6379, "BSTAR": 0, "MEAN_MOTION_DOT": -2.21e-06, "MEAN_MOTION_DDOT": 0}, "tle": {"line1": "1 33153U 08034A   25343.84464590 -.00000221  00000+0  00000+0 0  9991", "line2": "2 33153   2.2204  82.6784 0005379 184.9843  83.7399  1.00270259 63793"}}, "geometry": {"type": "Point", "coordinates": [-27.453107438224652, -2.091416931606978]}}, {"type": "Feature", "properties": {"norad_id": 33376, "name": "GALAXY 19 (G-19)", "group": "intelsat", "lat": -0.033055238591348034, "lon": -92.95546338524022, "alt_km": 35771.53530168308, "timestamp": "2025-12-10T18:56:59.729609+00:00", "meta": {"OBJECT_NAME": "GALAXY 19 (G-19)", "OBJECT_ID": "2008-045A", "EPOCH": "2025-12-10T05:39:38.657376", "MEAN_MOTION": 1.00278274, "ECCENTRICITY": 0.0003013, "INCLINATION": 0.0165, "RA_OF_ASC_NODE": 336.653, "ARG_OF_PERICENTER": 289.2299, "MEAN_ANOMALY": 161.2678, "EPHEMERIS_TYPE": 0, "CLASSIFICATION_TYPE": "U", "NORAD_CAT_ID": 33376, "ELEMENT_SET_NO": 999, "REV_AT_EPOCH": 6300, "BSTAR": 0, "MEAN_MOTION_DOT": -1.37e-06, "MEAN_MOTION_DDOT": 0}, "tle": {"line1": "1 33376U 08045A   25344.23586409 -.00000137  00000+0  00000+0 0  9994", "line2": "2 33376   0.0165 336.6530 0003013 289.2299 161.2678  1.00278274 63001"}}, "geometry": {"type": "Point", "coordinates": [-92.95546338524022, -0.033055238591348034]}}, {"type": "Feature", "properties": {"norad_id": 35493, "name": "FM-5", "group": "intelsat", "lat": -0.015272650990748359, "lon": -82.13084041863212, "alt_km": 35787.024747906646, "timestamp": "2025-12-10T18:56:59.729621+00:00", "meta": {"OBJECT_NAME": "FM-5", "OBJECT_ID": "2009-034A", "EPOCH": "2025-12-10T05:31:38.713152", "MEAN_MOTION": 1.00270716, "ECCENTRICITY": 6e-05, "INCLINATION": 0.0182, "RA_OF_ASC_NODE": 290.0918, "ARG_OF_PERICENTER": 243.8729, "MEAN_ANOMALY": 262.0146, "EPHEMERIS_TYPE": 0, "CLASSIFICATION_TYPE": "U", "NORAD_CAT_ID": 35493, "ELEMENT_SET_NO": 999, "REV_AT_EPOCH": 4474, "BSTAR": 0, "MEAN_MOTION_DOT": -1.97e-06, "MEAN_MOTION_DDOT": 0}, "tle": {"line1": "1 35493U 09034A   25344.23030918 -.00000197  00000+0  00000+0 0  9990", "line2": "2 35493   0.0182 290.0918 0000600 243.8729 262.0146  1.00270716 44741"}}, "geometry": {"type": "Point", "coordinates": [-82.13084041863212, -0.015272650990748359]}}, {"type": "Feature", "properties": {"norad_id": 36097, "name": "INTELSAT 14 (IS-14)", "group": "intelsat", "lat": -0.013662628119550848, "lon": -40.97047766307706, "alt_km": 35779.75270156027, "timestamp": "2025-12-10T18:56:59.729632+00:00", "meta": {"OBJECT_NAME": "INTELSAT 14 (IS-14)", "OBJECT_ID": "2009-064A", "EPOCH": "2025-12-09T20:12:25.276608", "MEAN_MOTION": 1.00270287, "ECCENTRICITY": 0.00026574, "INCLINATION": 0.0097, "RA_OF_ASC_NODE": 353.7968, "ARG_OF_PERICENTER": 272.7981, "MEAN_ANOMALY": 70.3417, "EPHEMERIS_TYPE": 0, "CLASSIFICATION_TYPE": "U", "NORAD_CAT_ID": 36097, "ELEMENT_SET_NO": 999, "REV_AT_EPOCH": 5870, "BSTAR": 0, "MEAN_MOTION_DOT": -2.71e-06, "MEAN_MOTION_DDOT": 0}, "tle": {"line1": "1 36097U 09064A   25343.84195922 -.00000271  00000+0  00000+0 0  9990", "line2": "2 36097   0.0097 353.7968 0002657 272.7981  70.3417  1.00270287 58709"}}, "geometry": {"type": "Point", "coordinates": [-40.97047766307706, -0.013662628119550848]}}, {"type": "Feature", "properties": {"norad_id": 36106, "name": "INTELSAT 15 (IS-15)", "group": "intelsat", "lat": 0.021624884044760137, "lon": 89.1499330416481, "alt_km": 35796.665386287146, "timestamp": "2025-12-10T18:56:59.729664+00:00", "meta": {"OBJECT_NAME": "INTELSAT 15 (IS-15)", "OBJECT_ID": "2009-067A", "EPOCH": "2025-12-10T12:54:39.223008", "MEAN_MOTION": 1.00270744, "ECCENTRICITY": 0.000243, "INCLINATION": 0.0255, "RA_OF_ASC_NODE": 288.1112, "ARG_OF_PERICENTER": 338.7778, "MEAN_ANOMALY": 91.433, "EPHEMERIS_TYPE": 0, "CLASSIFICATION_TYPE": "U", "NORAD_CAT_ID": 36106, "ELEMENT_SET_NO": 999, "REV_AT_EPOCH": 3933, "BSTAR": 0, "MEAN_MOTION_DOT": -1.81e-06, "MEAN_MOTION_DDOT": 0}, "tle": {"line1": "1 36106U 09067A   25344.53795397 -.00000181  00000+0  00000+0 0  9993", "line2": "2 36106   0.0255 288.1112 0002430 338.7778  91.4330  1.00270744 39338"}}, "geometry": {"type": "Point", "coordinates": [89.1499330416481, 0.021624884044760137]}}, {"type": "Feature", "properties": {"norad_id": 36131, "name": "DIRECTV 12", "group": "intelsat", "lat": 0.004636541423399921, "lon": -98.71866079317681, "alt_km": 35785.92584999232, "timestamp": "2025-12-10T18:56:59.729677+00:00", "meta": {"OBJECT_NAME": "DIRECTV 12", "OBJECT_ID": "2009-075A", "EPOCH": "2025-12-10T08:12:19.207008", "MEAN_MOTION": 1.00271691, "ECCENTRICITY": 4.7e-05, "INCLINATION": 0.0407, "RA_OF_ASC_NODE": 142.1952, "ARG_OF_PERICENTER": 203.616, "MEAN_ANOMALY": 113.8688, "EPHEMERIS_TYPE": 0, "CLASSIFICATION_TYPE": "U", "NORAD_CAT_ID": 36131, "ELEMENT_SET_NO": 999, "REV_AT_EPOCH": 4466, "BSTAR": 0, "MEAN_MOTION_DOT": -1e-06, "MEAN_MOTION_DDOT": 0}, "tle": {"line1": "1 36131U 09075A   25344.34188897 -.00000100  00000+0  00000+0 0  9991", "line2": "2 36131   0.0407 142.1952 0000470 203.6160 113.8688  1.00271691 44662"}}, "geometry": {"type": "Point", "coordinates": [-98.71866079317681, 0.004636541423399921]}}, {"type": "Feature", "properties": {"norad_id": 36397, "name": "INTELSAT 16 (IS-16)", "group": "intelsat", "lat": -0.01722096905623077, "lon": -72.19157693195642, "alt_km": 35777.88819566714, "timestamp": "2025-12-10T18:56:59.729689+00:00", "meta": {"OBJECT_NAME": "INTELSAT 16 (IS-16)", "OBJECT_ID": "2010-006A", "EPOCH": "2025-12-10T04:15:38.659392", "MEAN_MOTION": 1.00270158, "ECCENTRICITY": 0.00022535, "INCLINATION": 0.013, "RA_OF_ASC_NODE": 313.914, "ARG_OF_PERICENTER": 309.8505, "MEAN_ANOMALY": 163.0994, "EPHEMERIS_TYPE": 0, "CLASSIFICATION_TYPE": "U", "NORAD_CAT_ID": 36397, "ELEMENT_SET_NO": 999, "REV_AT_EPOCH": 5775, "BSTAR": 0, "MEAN_MOTION_DOT": -2.41e-06, "MEAN_MOTION_DDOT": 0}, "tle": {"line1": "1 36397U 10006A   25344.17753078 -.00000241  00000+0  00000+0 0  9997", "line2": "2 36397   0.0130 313.9140 0002253 309.8505 163.0994  1.00270158 57757"}}, "geometry": {"type": "Point", "coordinates": [-72.19157693195642, -0.01722096905623077]}}, {"type": "Feature", "properties": {"norad_id": 37185, "name": "XM-5", "group": "intelsat", "lat": -0.0407865168126045, "lon": -111.1800574792565, "alt_km": 35787.70951098665, "timestamp": "2025-12-10T18:56:59.729701+00:00", "meta": {"OBJECT_NAME": "XM-5", "OBJECT_ID": "2010-053A", "EPOCH": "2025-12-10T08:42:38.903328", "MEAN_MOTION": 1.00269378, "ECCENTRICITY": 0.0001518, "INCLINATION": 0.0613, "RA_OF_ASC_NODE": 272.7492, "ARG_OF_PERICENTER": 237.5376, "MEAN_ANOMALY": 304.5158, "EPHEMERIS_TYPE": 0, "CLASSIFICATION_TYPE": "U", "NORAD_CAT_ID": 37185, "ELEMENT_SET_NO": 999, "REV_AT_EPOCH": 5559, "BSTAR": 0, "MEAN_MOTION_DOT": -1.9e-07, "MEAN_MOTION_DDOT": 0}, "tle": {"line1": "1 37185U 10053A   25344.36295027 -.00000019  00000+0  00000+0 0  9994", "line2": "2 37185   0.0613 272.7492 0001518 237.5376 304.5158  1.00269378 55593"}}, "geometry": {"type": "Point", "coordinates": [-111.1800574792565, -0.0407865168126045]}}, {"type": "Feature", "properties": {"norad_id": 37238, "name": "INTELSAT 17 (IS-17)", "group": "intelsat", "lat": 0.02177150121067296, "lon": 70.02872022368085, "alt_km": 35796.04495629207, "timestamp": "2025-12-10T18:56:59.729713+00:00", "meta": {"OBJECT_NAME": "INTELSAT 17 (IS-17)", "OBJECT_ID": "2010-065B", "EPOCH": "2025-12-10T08:41:38.596128", "MEAN_MOTION": 1.00272645, "ECCENTRICITY": 0.0002468, "INCLINATION": 0.013, "RA_OF_ASC_NODE": 291.2623, "ARG_OF_PERICENTER": 330.6485, "MEAN_ANOMALY": 13.8548, "EPHEMERIS_TYPE": 0, "CLASSIFICATION_TYPE": "U", "NORAD_CAT_ID": 37238, "ELEMENT_SET_NO": 999, "REV_AT_EPOCH": 5135, "BSTAR": 0, "MEAN_MOTION_DOT": 2e-08, "MEAN_MOTION_DDOT": 0}, "tle": {"line1": "1 37238U 10065B   25344.36225227  .00000002  00000+0  00000+0 0  9992", "line2": "2 37238   0.0130 291.2623 0002468 330.6485  13.8548  1.00272645 51353"}}, "geometry": {"type": "Point", "coordinates": [70.02872022368085, 0.02177150121067296]}}, {"type": "Feature", "properties": {"norad_id": 37392, "name": "INTELSAT 28 (IS-28)", "group": "intelsat", "lat": -1.2207118505185195, "lon": -27.652788243021597, "alt_km": 35780.12920140911, "timestamp": "2025-12-10T18:56:59.729724+00:00", "meta": {"OBJECT_NAME": "INTELSAT 28 (IS-28)", "OBJECT_ID": "2011-016A", "EPOCH": "2025-12-09T20:16:17.405760", "MEAN_MOTION": 1.00272229, "ECCENTRICITY": 0.00039615, "INCLINATION": 1.3173, "RA_OF_ASC_NODE": 85.0894, "ARG_OF_PERICENTER": 178.4571, "MEAN_ANOMALY": 87.656, "EPHEMERIS_TYPE": 0, "CLASSIFICATION_TYPE": "U", "NORAD_CAT_ID": 37392, "ELEMENT_SET_NO": 999, "REV_AT_EPOCH": 5138, "BSTAR": 0, "MEAN_MOTION_DOT": -2.22e-06, "MEAN_MOTION_DDOT": 0}, "tle": {"line1": "1 37392U 11016A   25343.84464590 -.00000222  00000+0  00000+0 0  9995", "line2": "2 37392   1.3173  85.0894 0003961 178.4571  87.6560  1.00272229 51381"}}, "geometry": {"type": "Point", "coordinates": [-27.652788243021597, -1.2207118505185195]}}]}